0 CZ-4 DEB
1 26238U 99057EC  13282.36072793  .00018856  00000-0  21404-2 0  9647
2 26238 098.3678 189.0294 0027859 082.6793 056.0396 14.86077793727505
0 CZ-4 DEB
1 26238U 99057EC  13282.81377429  .00014594  00000-0  16588-2 0  9654
2 26238 098.3678 189.5059 0027910 081.2957 319.7092 14.86087734727568
0 CZ-4 DEB
1 26238U 99057EC  13283.74882882  .00028873  00000-0  32741-2 0  9666
2 26238 098.3681 190.4880 0027885 078.0259 282.4579 14.86113703727703
0 CZ-4 DEB
1 26238U 99057EC  13283.82470266  .00017956  00000-0  20372-2 0  9661
2 26238 098.3680 190.5694 0027906 078.2942 327.8685 14.86111318727714
0 CZ-4 DEB
1 26238U 99057EC  13286.20267332  .00012410  00000-0  14092-2 0  9688
2 26238 098.3688 193.0710 0027850 070.9222 089.9477 14.86172540728076
0 CZ-4 DEB
1 26238U 99057EC  13287.20637861  .00012369  00000-0  14040-2 0  9694
2 26238 098.3688 194.1269 0027787 068.0148 059.6921 14.86190575728224
0 CZ-4 DEB
1 26238U 99057EC  13288.48427883  .00020947  00000-0  23675-2 0  9703
2 26238 098.3690 195.4715 0027662 064.2329 056.5733 14.86233659728417
0 CZ-4 DEB
1 26238U 99057EC  13289.68389296  .00019940  00000-0  22525-2 0  9716
2 26238 098.3691 196.7334 0027788 060.7997 354.6818 14.86265633728592
0 CZ-4 DEB
1 26238U 99057EC  13290.69369448  .00019561  00000-0  22083-2 0  9725
2 26238 098.3696 197.7960 0027716 057.7554 357.5298 14.86296786728743
0 CZ-4 DEB
1 26238U 99057EC  13291.83533178  .00016542  00000-0  18678-2 0  9737
2 26238 098.3697 198.9972 0027591 054.2497 345.9536 14.86333060728911
0 CZ-4 DEB
1 26238U 99057EC  13293.20558888  .00014633  00000-0  16520-2 0  9749
2 26238 098.3693 200.4394 0027531 050.0705 117.7793 14.86371338729117
0 CZ-4 DEB
1 26238U 99057EC  13294.20770656  .00017048  00000-0  19219-2 0  9751
2 26238 098.3690 201.4942 0027372 046.9737 079.9613 14.86395721729264
0 CZ-4 DEB
1 26238U 99057EC  13295.35434859  .00018349  00000-0  20664-2 0  9762
2 26238 098.3685 202.7011 0027213 043.4938 095.5149 14.86423763729433
